{
"type": "FeatureCollection",
"name": "bangalore",
"crs": { "type": "name", "properties": { "name": "urn:ogc:def:crs:OGC:1.3:CRS84" } },
"features": [
{ "type": "Feature", "properties": { "lc": "uban", "id": 1 }, "geometry": { "type": "Point", "coordinates": [ 77.656183197306234, 12.954774480921643 ] } },
{ "type": "Feature", "properties": { "lc": "uban", "id": 2 }, "geometry": { "type": "Point", "coordinates": [ 77.658650829599935, 12.954586277198295 ] } },
{ "type": "Feature", "properties": { "lc": "uban", "id": 3 }, "geometry": { "type": "Point", "coordinates": [ 77.63830895643099, 12.955150887941738 ] } },
{ "type": "Feature", "properties": { "lc": "uban", "id": 4 }, "geometry": { "type": "Point", "coordinates": [ 77.666096641825277, 12.94988113790161 ] } },
{ "type": "Feature", "properties": { "lc": "uban", "id": 5 }, "geometry": { "type": "Point", "coordinates": [ 77.663757755564291, 12.901946395056886 ] } },
{ "type": "Feature", "properties": { "lc": "uban", "id": 6 }, "geometry": { "type": "Point", "coordinates": [ 77.65888686399326, 12.893705377648191 ] } },
{ "type": "Feature", "properties": { "lc": "uban", "id": 7 }, "geometry": { "type": "Point", "coordinates": [ 77.653651191996175, 12.896257193774515 ] } },
{ "type": "Feature", "properties": { "lc": "uban", "id": 8 }, "geometry": { "type": "Point", "coordinates": [ 77.620198681162435, 12.879690841834488 ] } },
{ "type": "Feature", "properties": { "lc": "uban", "id": 9 }, "geometry": { "type": "Point", "coordinates": [ 77.526171161936361, 12.94950472291916 ] } },
{ "type": "Feature", "properties": { "lc": "uban", "id": 10 }, "geometry": { "type": "Point", "coordinates": [ 77.5341748736368, 12.950006609436075 ] } },
{ "type": "Feature", "properties": { "lc": "uban", "id": 11 }, "geometry": { "type": "Point", "coordinates": [ 77.520978405283529, 12.942687330955769 ] } },
{ "type": "Feature", "properties": { "lc": "uban", "id": 12 }, "geometry": { "type": "Point", "coordinates": [ 77.531406833933431, 12.936183448914932 ] } },
{ "type": "Feature", "properties": { "lc": "uban", "id": 13 }, "geometry": { "type": "Point", "coordinates": [ 77.537350609110433, 12.932983727663112 ] } },
{ "type": "Feature", "properties": { "lc": "bare", "id": 14 }, "geometry": { "type": "Point", "coordinates": [ 77.578753187464315, 12.900304488115051 ] } },
{ "type": "Feature", "properties": { "lc": "bare", "id": 15 }, "geometry": { "type": "Point", "coordinates": [ 77.572588592192304, 12.900400939536986 ] } },
{ "type": "Feature", "properties": { "lc": "bare", "id": 16 }, "geometry": { "type": "Point", "coordinates": [ 77.497443629804948, 12.922142137826707 ] } },
{ "type": "Feature", "properties": { "lc": "bare", "id": 17 }, "geometry": { "type": "Point", "coordinates": [ 77.495866490904191, 12.923512017657885 ] } },
{ "type": "Feature", "properties": { "lc": "bare", "id": 18 }, "geometry": { "type": "Point", "coordinates": [ 77.510703174269082, 12.987672000516854 ] } },
{ "type": "Feature", "properties": { "lc": "bare", "id": 19 }, "geometry": { "type": "Point", "coordinates": [ 77.627054552412218, 13.020352510846642 ] } },
{ "type": "Feature", "properties": { "lc": "bare", "id": 20 }, "geometry": { "type": "Point", "coordinates": [ 77.607013086652941, 13.023070275607665 ] } },
{ "type": "Feature", "properties": { "lc": "water", "id": 21 }, "geometry": { "type": "Point", "coordinates": [ 77.584027021889511, 12.946465216050399 ] } },
{ "type": "Feature", "properties": { "lc": "water", "id": 22 }, "geometry": { "type": "Point", "coordinates": [ 77.582417696480576, 12.944980444410998 ] } },
{ "type": "Feature", "properties": { "lc": "water", "id": 23 }, "geometry": { "type": "Point", "coordinates": [ 77.560144632820908, 12.952027802976799 ] } },
{ "type": "Feature", "properties": { "lc": "water", "id": 24 }, "geometry": { "type": "Point", "coordinates": [ 77.617887228493515, 12.909343273988116 ] } },
{ "type": "Feature", "properties": { "lc": "water", "id": 25 }, "geometry": { "type": "Point", "coordinates": [ 77.67170307016832, 12.935778845503677 ] } },
{ "type": "Feature", "properties": { "lc": "vegetation", "id": 26 }, "geometry": { "type": "Point", "coordinates": [ 77.592983473900404, 12.973819098281414 ] } },
{ "type": "Feature", "properties": { "lc": "vegetation", "id": 27 }, "geometry": { "type": "Point", "coordinates": [ 77.591524352196316, 12.972020838933783 ] } },
{ "type": "Feature", "properties": { "lc": "vegetation", "id": 28 }, "geometry": { "type": "Point", "coordinates": [ 77.586814393166151, 12.948882773171434 ] } },
{ "type": "Feature", "properties": { "lc": "vegetation", "id": 29 }, "geometry": { "type": "Point", "coordinates": [ 77.584702592163566, 12.952709641880459 ] } },
{ "type": "Feature", "properties": { "lc": "vegetation", "id": 30 }, "geometry": { "type": "Point", "coordinates": [ 77.583382945328239, 12.913978183843149 ] } },
{ "type": "Feature", "properties": { "lc": "vegetation", "id": 31 }, "geometry": { "type": "Point", "coordinates": [ 77.580534583179883, 12.923805025122903 ] } },
{ "type": "Feature", "properties": { "lc": "vegetation", "id": 32 }, "geometry": { "type": "Point", "coordinates": [ 77.571962402157709, 13.010018094770263 ] } },
{ "type": "Feature", "properties": { "lc": "vegetation", "id": 33 }, "geometry": { "type": "Point", "coordinates": [ 77.56953768520826, 13.021422529521482 ] } }
]
}
